CRE (WAAS/PRN 138)      
1 28868U 05036A   22256.46020308 -.00000087  00000+0  00000+0 0  9990
2 28868   0.7783  92.8926 0002517  46.1663 271.7263  1.00271976 62397
IOR-W (EGNOS/PRN 126)   
1 28899U 05044A   22256.05189797 -.00000003  00000+0  00000+0 0  9994
2 28899   3.5667  38.1034 0002969 144.8998 251.6145  1.00272618 61731
QZS-1 (QZSS/PRN 183)    
1 37158U 10045A   22255.61669759 -.00000192  00000+0  00000+0 0  9990
2 37158  42.4225 132.1840 0744998 270.1648 307.6853  1.00289602 43965
GSAT-8 (GAGAN/PRN 127)  
1 37605U 11022A   22255.88454287  .00000069  00000+0  00000+0 0  9992
2 37605   0.0320  99.7186 0005300 146.4657 119.1969  1.00272300 39440
LUCH 5A (SDCM/PRN 140)  
1 37951U 11074B   22255.89387728 -.00000061  00000+0  00000+0 0  9992
2 37951   5.2322  96.0306 0004478  46.0469 338.4931  1.00272038 39429
SES-5 (EGNOS/PRN 136)   
1 38652U 12036A   22255.89667650  .00000018  00000+0  00000+0 0  9996
2 38652   0.0654 296.1494 0002190 238.6508 144.8517  1.00269981 37297
GSAT-10 (GAGAN/PRN 128) 
1 38779U 12051B   22256.12750069 -.00000180  00000+0  00000+0 0  9998
2 38779   0.0419 253.5334 0002555 332.7737 254.7007  1.00272809 36524
LUCH 5B (SDCM/PRN 125)  
1 38977U 12061A   22255.17503773 -.00000149  00000+0  00000+0 0  9996
2 38977   7.4758  61.9516 0005632  82.9917 252.9508  1.00270871 36395
ASTRA 5B (EGNOS/PRN 123)
1 39617U 14011B   22256.11721104  .00000140  00000+0  00000+0 0  9990
2 39617   0.0465  17.5433 0004042 160.9526 247.2773  1.00273871 31101
LUCH 5V (SDCM/PRN 141)  
1 39727U 14023A   22255.54732772 -.00000283  00000+0  00000+0 0  9993
2 39727   1.7000  76.4093 0003685 114.2968  92.4934  1.00267006 30589
GSAT-15 (GAGAN/PRN 139) 
1 41028U 15065A   22254.88369694 -.00000275  00000+0  00000+0 0  9993
2 41028   0.0209 173.3094 0002179 323.3687 265.8121  1.00267128 25027
E 117 W B (WAAS/PRN 131)
1 41589U 16038B   22255.20271642 -.00000029  00000+0  00000+0 0  9995
2 41589   0.0391  10.7452 0000075  44.3437 252.0780  1.00271985 22896
SES-15 (WAAS/PRN 133)   
1 42709U 17026A   22255.08068696  .00000041  00000+0  00000+0 0  9990
2 42709   0.0113 100.9885 0000863  91.2010  58.7788  1.00276243 20404
QZS-2 (QZSS/PRN 184)    
1 42738U 17028A   22255.83093182 -.00000181  00000+0  00000+0 0  9991
2 42738  41.6323 262.9339 0751498 270.2137 258.3194  1.00263608 19373
QZS-3 (QZSS/PRN 189)    
1 42917U 17048A   22255.99275983 -.00000363  00000+0  00000+0 0  9992
2 42917   0.0594 157.6050 0001957  30.3766 288.4023  1.00269871 18598
QZS-4 (QZSS/PRN 185)    
1 42965U 17062A   22255.62171375 -.00000356  00000+0  00000+0 0  9993
2 42965  40.7493   1.0022 0747982 269.4371  83.5084  1.00283009 18043
GALAXY 30 (WAAS/PRN 135)
1 46114U 20056C   22256.26119889  .00000023  00000+0  00000+0 0  9993
2 46114   0.0190 150.7629 0002047  26.8629 143.6323  1.00271114  7639
